     2.10           N: GPS NAV DATA                         RINEX VERSION / TYPE
teqc  2013Mar15     gpsops              20150112 00:11:12UTCPGM / RUN BY / DATE
Linux 2.4.21-27.ELsmp|Opteron|gcc -static|Linux x86_64|=+   COMMENT
BOGT                                    MARKER NAME         COMMENT
41901M001                               MARKER NUMBER       COMMENT
1744399.0397 -6116037.5577 512731.7532                      COMMENT
                                                            COMMENT
This data is provided as a public service by NASA/JPL.      COMMENT
No warranty is expressed or implied regarding suitability   COMMENT
for use.  For further information, contact:                 COMMENT
Dave Stowers, NASA/JPL m/s 238-600                          COMMENT
4800 Oak Grove Drive, Pasadena CA 91109 USA                 COMMENT
                                                            END OF HEADER
 6 15  1 11 16  0  0.0 4.876684397459D-05 1.023181539495D-11 0.000000000000D+00
    6.200000000000D+01-5.434375000000D+01 4.582333729736D-09 1.527622935673D+00
   -2.872198820114D-06 4.693262744695D-04 8.739531040192D-06 5.153677272797D+03
    5.760000000000D+04-4.284083843231D-08 4.463982415471D-01-3.166496753693D-08
    9.618249880314D-01 2.133125000000D+02 2.385823422093D+00-8.017833974968D-09
   -9.714690370134D-11 0.000000000000D+00 1.827000000000D+03 0.000000000000D+00
    2.000000000000D+00 0.000000000000D+00 4.656612873077D-09 6.200000000000D+01
    5.040000000000D+04 4.000000000000D+00
12 15  1 11 16  0  0.0 2.605649642646D-04 2.955857780762D-12 0.000000000000D+00
    8.100000000000D+01 3.371875000000D+01 3.731226849146D-09-2.275194897354D+00
    1.752749085426D-06 5.131613695994D-03 8.014962077141D-06 5.153754318237D+03
    5.760000000000D+04-5.587935447693D-08-1.601655097352D+00-1.303851604462D-08
    9.888634723728D-01 2.402187500000D+02 4.991327810095D-01-7.666033606785D-09
    3.028697585983D-10 0.000000000000D+00 1.827000000000D+03 0.000000000000D+00
    2.000000000000D+00 0.000000000000D+00-1.210719347000D-08 8.100000000000D+01
    5.040000000000D+04 4.000000000000D+00
13 15  1 11 16  0  0.0-7.780035957694D-05-3.524291969370D-12 0.000000000000D+00
    5.000000000000D+00 1.865625000000D+01 4.485901141503D-09-1.101005576044D+00
    1.052394509315D-06 5.336533184163D-03 5.265697836876D-06 5.153686908722D+03
    5.760000000000D+04-5.215406417847D-08 2.653010610392D+00-5.587935447693D-08
    9.754458613155D-01 2.834687500000D+02 2.072111613343D+00-8.171411800672D-09
   -1.739358165535D-10 0.000000000000D+00 1.827000000000D+03 0.000000000000D+00
    2.000000000000D+00 0.000000000000D+00-1.117587089539D-08 5.000000000000D+00
    5.040000000000D+04 4.000000000000D+00
15 15  1 11 16  0  0.0-2.257148735225D-04-2.273736754432D-12 0.000000000000D+00
    6.500000000000D+01 2.453125000000D+01 5.469156383745D-09 9.466917105382D-02
    1.298263669014D-06 7.018116419204D-03 4.712492227554D-06 5.153570770264D+03
    5.760000000000D+04 1.024454832077D-07 2.499770813488D+00 4.842877388000D-08
    9.344557774111D-01 2.709062500000D+02 3.551028580194D-01-8.682861676041D-09
   -1.450060400836D-10 0.000000000000D+00 1.827000000000D+03 0.000000000000D+00
    2.000000000000D+00 0.000000000000D+00-1.024454832077D-08 6.500000000000D+01
    5.040000000000D+04 4.000000000000D+00
17 15  1 11 15 59 44.0-1.493771560490D-04-2.160049916711D-12 0.000000000000D+00
    2.300000000000D+01-2.415625000000D+01 4.536617539759D-09 9.426920427703D-01
   -1.315027475357D-06 9.979101945646D-03 5.085021257401D-06 5.153698413849D+03
    5.758400000000D+04-1.303851604462D-07-5.541252877139D-01 8.568167686462D-08
    9.712024392113D-01 2.860000000000D+02-2.055295841082D+00-8.344990459492D-09
    5.643092200298D-11 0.000000000000D+00 1.827000000000D+03 0.000000000000D+00
    2.000000000000D+00 0.000000000000D+00-1.071020960808D-08 2.300000000000D+01
    5.040000000000D+04 4.000000000000D+00
25 15  1 11 16  0  0.0 3.903172910213D-06-2.387423592154D-12 0.000000000000D+00
    7.800000000000D+01 4.075000000000D+01 3.903019719295D-09-2.995315713300D+00
    2.095475792885D-06 3.987375646830D-03 8.478760719299D-06 5.153742677689D+03
    5.760000000000D+04 1.303851604462D-08-1.646726090717D+00 3.166496753693D-08
    9.774628947273D-01 2.252187500000D+02 6.623553055971D-01-7.792467444690D-09
    2.921550265724D-10 0.000000000000D+00 1.827000000000D+03 0.000000000000D+00
    2.000000000000D+00 0.000000000000D+00 5.122274160385D-09 7.800000000000D+01
    5.040000000000D+04 4.000000000000D+00
29 15  1 11 16  0  0.0 5.852845497429D-04 2.387423592154D-12 0.000000000000D+00
    6.500000000000D+01-2.781250000000D+01 4.469829043464D-09-2.518233329726D+00
   -1.357868313789D-06 1.241195248440D-03 4.617497324944D-06 5.153568702698D+03
    5.760000000000D+04-5.587935447693D-09-5.448803023031D-01 9.313225746155D-09
    9.720123209004D-01 2.944375000000D+02-8.791469132092D-01-8.156411175836D-09
    1.400058318049D-10 0.000000000000D+00 1.827000000000D+03 0.000000000000D+00
    2.000000000000D+00 0.000000000000D+00-9.778887033463D-09 6.500000000000D+01
    5.076000000000D+04 4.000000000000D+00
24 15  1 11 16  0  0.0-4.161242395639D-05-6.821210263297D-13 0.000000000000D+00
    1.050000000000D+02-8.937500000000D+00 4.540189117101D-09-9.641443056689D-01
   -5.308538675308D-07 2.873877179809D-03 8.100643754005D-06 5.153689971924D+03
    5.760000000000D+04 4.284083843231D-08-2.706737565684D+00-5.401670932770D-08
    9.550994138043D-01 2.216250000000D+02 2.457127621914D-01-8.086408259934D-09
   -3.382283742837D-10 0.000000000000D+00 1.827000000000D+03 0.000000000000D+00
    2.000000000000D+00 0.000000000000D+00 2.793967723846D-09 1.050000000000D+02
    5.262000000000D+04 4.000000000000D+00
 2 15  1 11 18  0  0.0 5.412688478827D-04 2.273736754432D-12 0.000000000000D+00
    3.600000000000D+01-5.290625000000D+01 5.142714214689D-09 4.083265753437D-01
   -2.784654498100D-06 1.417609979399D-02 8.180737495422D-06 5.153747594833D+03
    6.480000000000D+04-1.266598701477D-07 4.202701194231D-01 2.048909664154D-07
    9.405214424590D-01 2.142187500000D+02-2.342445279494D+00-8.495711023322D-09
   -1.357199389945D-10 0.000000000000D+00 1.827000000000D+03 0.000000000000D+00
    2.000000000000D+00 0.000000000000D+00-2.048909664154D-08 3.600000000000D+01
    5.760000000000D+04 4.000000000000D+00
 5 15  1 11 18  0  0.0-2.942122519016D-04 5.002220859751D-12 0.000000000000D+00
    2.700000000000D+01 2.818750000000D+01 4.928419574172D-09 2.732536518074D+00
    1.478940248489D-06 4.053991520777D-03 9.182840585709D-06 5.153754005432D+03
    6.480000000000D+04-6.519258022308D-08 1.490095119506D+00-4.842877388000D-08
    9.463278798861D-01 1.961250000000D+02 4.208624651938D-01-8.072479108300D-09
    1.671498196038D-10 0.000000000000D+00 1.827000000000D+03 0.000000000000D+00
    2.000000000000D+00 0.000000000000D+00-1.071020960808D-08 2.700000000000D+01
    5.760000000000D+04 4.000000000000D+00
12 15  1 11 18  0  0.0 2.605859190226D-04 2.955857780762D-12 0.000000000000D+00
    8.200000000000D+01 2.809375000000D+01 3.786229140213D-09-1.225063545385D+00
    1.445412635803D-06 5.132102058269D-03 7.828697562218D-06 5.153754194260D+03
    6.480000000000D+04 1.266598701477D-07-1.601709668585D+00-8.568167686462D-08
    9.888649879560D-01 2.448125000000D+02 4.991277602747D-01-7.739250942295D-09
    1.546492989069D-10 0.000000000000D+00 1.827000000000D+03 0.000000000000D+00
    2.000000000000D+00 0.000000000000D+00-1.210719347000D-08 8.200000000000D+01
    5.760000000000D+04 4.000000000000D+00
13 15  1 11 18  0  0.0-7.782597094774D-05-3.524291969370D-12 0.000000000000D+00
    6.000000000000D+00 2.225000000000D+01 4.495901558060D-09-5.071397602923D-02
    1.234933733940D-06 5.337186623365D-03 5.688518285751D-06 5.153688611984D+03
    6.480000000000D+04-1.676380634308D-08 2.652951429504D+00 1.862645149231D-09
    9.754448153290D-01 2.776250000000D+02 2.071992046123D+00-8.182483690432D-09
   -1.182192100189D-10 0.000000000000D+00 1.827000000000D+03 0.000000000000D+00
    2.000000000000D+00 0.000000000000D+00-1.117587089539D-08 6.000000000000D+00
    5.760000000000D+04 4.000000000000D+00
15 15  1 11 18  0  0.0-2.257307060063D-04-2.273736754432D-12 0.000000000000D+00
    6.600000000000D+01 3.493750000000D+01 5.458798809453D-09 1.144753250288D+00
    2.110376954079D-06 7.019437151030D-03 5.183741450310D-06 5.153574113846D+03
    6.480000000000D+04 2.793967723846D-08 2.499708864759D+00 1.005828380585D-07
    9.344546802225D-01 2.638750000000D+02 3.552683930517D-01-8.628573700443D-09
   -1.939366496685D-10 0.000000000000D+00 1.827000000000D+03 0.000000000000D+00
    2.800000000000D+00 0.000000000000D+00-1.024454832077D-08 6.600000000000D+01
    5.760000000000D+04 4.000000000000D+00
24 15  1 11 18  0  0.0-4.161708056927D-05-6.821210263297D-13 0.000000000000D+00
    1.060000000000D+02-1.100000000000D+01 4.602691720585D-09 8.621424771804D-02
   -7.115304470062D-07 2.875410136767D-03 7.282942533493D-06 5.153693038940D+03
    6.480000000000D+04 1.117587089539D-08-2.706795994632D+00 6.519258022308D-08
    9.550964353031D-01 2.331875000000D+02 2.455247318677D-01-8.177126324419D-09
   -3.728726745007D-10 0.000000000000D+00 1.827000000000D+03 0.000000000000D+00
    2.000000000000D+00 0.000000000000D+00 2.793967723846D-09 1.060000000000D+02
    5.760000000000D+04 4.000000000000D+00
25 15  1 11 18  0  0.0 3.885477781296D-06-2.387423592154D-12 0.000000000000D+00
    1.170000000000D+02 3.293750000000D+01 3.970522531058D-09-1.945501693132D+00
    1.722946763039D-06 3.989082761109D-03 7.862225174904D-06 5.153738670349D+03
    6.480000000000D+04-4.097819328308D-08-1.646781544090D+00-9.499490261078D-08
    9.774647306895D-01 2.385000000000D+02 6.626767920855D-01-7.772823769309D-09
    1.817932867058D-10 0.000000000000D+00 1.827000000000D+03 0.000000000000D+00
    2.000000000000D+00 0.000000000000D+00 5.122274160385D-09 1.170000000000D+02
    5.760000000000D+04 4.000000000000D+00
